{
"type": "FeatureCollection",
"name": "Mainz",
"crs": { "type": "name", "properties": { "name": "urn:ogc:def:crs:OGC:1.3:CRS84" } },
"features": [
{ "type": "Feature", "properties": { "GID_4": "DEU.11.20.1.1_1", "GID_0": "DEU", "COUNTRY": "Germany", "GID_1": "DEU.11_1", "NAME_1": "Rheinland-Pfalz", "GID_2": "DEU.11.20_1", "NAME_2": "Mainz", "GID_3": "DEU.11.20.1_1", "NAME_3": "Mainz", "NAME_4": "Mainz", "VARNAME_4": "NA", "TYPE_4": "Stadt", "ENGTYPE_4": "Town", "CC_4": "073150000000" }, "geometry": { "type": "MultiPolygon", "coordinates": [ [ [ [ 8.288245201000109, 49.995132446000184 ], [ 8.2902145380001, 49.993522645000155 ], [ 8.296610833000045, 49.989929199000187 ], [ 8.301448822000054, 49.987392425000053 ], [ 8.307717323000077, 49.984115601000042 ], [ 8.310424805000139, 49.982109069999979 ], [ 8.318771362000177, 49.976131440000131 ], [ 8.322339058000125, 49.973590851000154 ], [ 8.325279236000029, 49.970993042000032 ], [ 8.329441071000019, 49.966716766000104 ], [ 8.331967355000188, 49.963794709000183 ], [ 8.334501266000132, 49.960697174000131 ], [ 8.337634088000186, 49.956100464000087 ], [ 8.340963364000118, 49.951076508000085 ], [ 8.342163084999981, 49.949039460000108 ], [ 8.3423509590001, 49.947845459000177 ], [ 8.342765808000024, 49.941650392000156 ], [ 8.343030930000111, 49.940505981000058 ], [ 8.340743066000186, 49.93973159900014 ], [ 8.339119910000022, 49.939529420000156 ], [ 8.337954521000142, 49.939399719 ], [ 8.336441994000097, 49.939235688000053 ], [ 8.335205079, 49.938835145000041 ], [ 8.333312035000063, 49.938133240000127 ], [ 8.32622432800008, 49.945522308000079 ], [ 8.321501732000115, 49.943866730000025 ], [ 8.310963631000106, 49.941322326000034 ], [ 8.309823037000058, 49.941246033000027 ], [ 8.308381080000061, 49.941364288000102 ], [ 8.304267884000069, 49.941951751000147 ], [ 8.306189536999966, 49.947441101000095 ], [ 8.303298951000102, 49.947811128000069 ], [ 8.302298547000078, 49.945907594000175 ], [ 8.299442291000048, 49.94585418600019 ], [ 8.297382354000035, 49.948749542000087 ], [ 8.296827316000133, 49.944786071000181 ], [ 8.295842170000128, 49.942283631000066 ], [ 8.29304122800005, 49.942218781 ], [ 8.287728309000158, 49.942195891999972 ], [ 8.286353111999972, 49.942386626000143 ], [ 8.286144257000046, 49.941165924000018 ], [ 8.282835007000131, 49.941246033000027 ], [ 8.28004074100005, 49.941364288000102 ], [ 8.279406547000121, 49.940307616999974 ], [ 8.278304100000128, 49.937351228000068 ], [ 8.277730941000073, 49.935279846000128 ], [ 8.278706551000141, 49.932624816000157 ], [ 8.280331612000055, 49.932468414000027 ], [ 8.280139923999968, 49.931186675999982 ], [ 8.27756977100006, 49.929210664000095 ], [ 8.276695252000081, 49.929721833000031 ], [ 8.276587487000143, 49.929630281000129 ], [ 8.274956703000043, 49.928428650000058 ], [ 8.271561622000036, 49.927085877000081 ], [ 8.267485618000137, 49.925113679000162 ], [ 8.267769814000189, 49.922924042000091 ], [ 8.268574714000181, 49.920627594000109 ], [ 8.269080163000183, 49.919078827000135 ], [ 8.261026383000114, 49.916336060000162 ], [ 8.26142215699997, 49.915031434000184 ], [ 8.258984565000105, 49.914100648000101 ], [ 8.261148453999965, 49.909599305000086 ], [ 8.257946969000045, 49.909229280000091 ], [ 8.258090973000037, 49.908538818000181 ], [ 8.255666732000122, 49.908519743999989 ], [ 8.256138802000066, 49.907665252000186 ], [ 8.255711556000108, 49.905799867000098 ], [ 8.254436492000082, 49.90622711200001 ], [ 8.253027916000065, 49.905082703000119 ], [ 8.254196168000135, 49.902179717000081 ], [ 8.252291679, 49.901782989000139 ], [ 8.252628327000139, 49.90085983300014 ], [ 8.251317023000183, 49.900592805000031 ], [ 8.249618531000181, 49.899963378000109 ], [ 8.251914024000087, 49.897983551000152 ], [ 8.252703666000059, 49.896614074000126 ], [ 8.248747825000066, 49.895401002000085 ], [ 8.245795249000025, 49.896263122 ], [ 8.239258765999978, 49.897750855000083 ], [ 8.238382339000054, 49.898590089000095 ], [ 8.234836578000056, 49.899032592000026 ], [ 8.233163833000106, 49.898448945000155 ], [ 8.232321738000167, 49.90061187800012 ], [ 8.228577615000063, 49.900238036000076 ], [ 8.22714328800015, 49.900211335000108 ], [ 8.228524208000181, 49.901920320000045 ], [ 8.227335929000162, 49.902301788000159 ], [ 8.229528427000048, 49.909492492000027 ], [ 8.224781990000167, 49.909343720000152 ], [ 8.224903108000035, 49.910606385000108 ], [ 8.229789734000065, 49.911022187000015 ], [ 8.229934691000096, 49.912075043000129 ], [ 8.230838775999985, 49.915325166000173 ], [ 8.229973793000113, 49.918251038000164 ], [ 8.233277320000184, 49.918838500000049 ], [ 8.231946945000118, 49.921298981000177 ], [ 8.228442191000056, 49.921119690000182 ], [ 8.229824066000049, 49.923423768000191 ], [ 8.232411385000034, 49.925006867000036 ], [ 8.23480510700017, 49.927429200000176 ], [ 8.234894753000162, 49.928764343000068 ], [ 8.236176491000151, 49.928791047000118 ], [ 8.236266135999983, 49.930698396000082 ], [ 8.239215851000097, 49.934360505000143 ], [ 8.240386963000162, 49.936119080000083 ], [ 8.242012024000076, 49.938304902000084 ], [ 8.240669251000099, 49.939861298000096 ], [ 8.245023728000035, 49.939785003999987 ], [ 8.243433951000043, 49.947414399000195 ], [ 8.236967086000107, 49.94671630900018 ], [ 8.236148835000165, 49.94924163800016 ], [ 8.234148979000054, 49.949066162000179 ], [ 8.234186173000126, 49.948272705000193 ], [ 8.229882240999984, 49.947547913000051 ], [ 8.229035377000116, 49.948650360000045 ], [ 8.227115631000061, 49.94795227000003 ], [ 8.225617409000108, 49.949516298000106 ], [ 8.22192955100013, 49.951648713000111 ], [ 8.223722458000054, 49.953258515000073 ], [ 8.21878623900011, 49.955528260000165 ], [ 8.217065811000055, 49.957069397000055 ], [ 8.212285996000048, 49.956081390000122 ], [ 8.211554527000033, 49.9573555 ], [ 8.207678796000096, 49.956710815000065 ], [ 8.205498696000177, 49.956207276000043 ], [ 8.204250334999983, 49.957206726000152 ], [ 8.202599525000039, 49.95846176200007 ], [ 8.200143815000047, 49.957015991999981 ], [ 8.198266982000121, 49.956016540000064 ], [ 8.197341919000053, 49.955528260000165 ], [ 8.196198463000087, 49.954936982000106 ], [ 8.193666459000042, 49.953655244000117 ], [ 8.190841674000183, 49.952632904000097 ], [ 8.185768127000017, 49.96282958900008 ], [ 8.186412812000185, 49.963642120000088 ], [ 8.185275078000188, 49.964347840000187 ], [ 8.180697441000063, 49.967216492000034 ], [ 8.179175377000092, 49.967517854000107 ], [ 8.166908265000075, 49.966281891000051 ], [ 8.163845062000064, 49.9659729010001 ], [ 8.159510613000123, 49.965290070000151 ], [ 8.155105590000119, 49.964641572000176 ], [ 8.148555755000018, 49.963886261000084 ], [ 8.147092819000136, 49.965248108000083 ], [ 8.146338464000166, 49.969203950000178 ], [ 8.145959854000125, 49.970355987000175 ], [ 8.143938064000167, 49.973133087000122 ], [ 8.14427471200014, 49.975902557000097 ], [ 8.145395280000116, 49.976387024000132 ], [ 8.146303177000163, 49.976943970000036 ], [ 8.143426895000061, 49.979488372000048 ], [ 8.145322799000041, 49.979812622000054 ], [ 8.143557549000036, 49.983036041000048 ], [ 8.146835327000133, 49.983932495000147 ], [ 8.146255493000126, 49.98492050200008 ], [ 8.150732995000055, 49.986415864000037 ], [ 8.15040874500005, 49.987037659 ], [ 8.153844833000164, 49.987857819000055 ], [ 8.152600288000087, 49.991279602000077 ], [ 8.151112557000033, 49.994255067000154 ], [ 8.157801628000072, 49.996219636000092 ], [ 8.156050682000114, 49.998592377000023 ], [ 8.155570984000065, 49.999244690000126 ], [ 8.15656852799998, 49.999977112000124 ], [ 8.155509949000077, 50.003311158000145 ], [ 8.158015251000052, 50.003749847000108 ], [ 8.167234421000103, 50.003730773000086 ], [ 8.170489311000097, 50.003429414000152 ], [ 8.173201560000052, 50.003932953000117 ], [ 8.175275802000101, 50.004421233000016 ], [ 8.18155574900004, 50.005897522000055 ], [ 8.183493615000145, 50.006538392000152 ], [ 8.188619613000071, 50.009387971000137 ], [ 8.191006660000141, 50.011146546000077 ], [ 8.192729950000057, 50.014198304000161 ], [ 8.196414948000154, 50.016838075000123 ], [ 8.194619178999972, 50.019004822000113 ], [ 8.194436073000134, 50.019397735000041 ], [ 8.19401073500012, 50.020309448000035 ], [ 8.193432808000125, 50.021556854000039 ], [ 8.199787141, 50.022197724000137 ], [ 8.200172424000186, 50.025184631000116 ], [ 8.201026917000092, 50.026878357999976 ], [ 8.201408387000072, 50.02764129600007 ], [ 8.204360963000113, 50.026988983000194 ], [ 8.204677582000102, 50.028228761000094 ], [ 8.199627876000079, 50.029197694000061 ], [ 8.199773788000073, 50.029937744000165 ], [ 8.191706657000054, 50.031467438000107 ], [ 8.189218521000043, 50.03290176500019 ], [ 8.190038681999965, 50.035297395000157 ], [ 8.19162368800005, 50.035232544000053 ], [ 8.192940712000109, 50.035179139000149 ], [ 8.195529939000039, 50.035015107000106 ], [ 8.196454047000088, 50.034996033000084 ], [ 8.197523117000117, 50.034896851000042 ], [ 8.19950676000019, 50.034767150000107 ], [ 8.20536136700008, 50.034130098000105 ], [ 8.210515021, 50.033214570000041 ], [ 8.214530943999989, 50.032531738000046 ], [ 8.218132973000081, 50.032028199000194 ], [ 8.222198486000082, 50.031711579000103 ], [ 8.225378036999984, 50.031597137000063 ], [ 8.229466439000078, 50.031425476000152 ], [ 8.232686997000087, 50.031002044000104 ], [ 8.234706880000147, 50.030555725000056 ], [ 8.236403463999977, 50.030132293000179 ], [ 8.241168975000051, 50.028614044000051 ], [ 8.241783142000145, 50.028453827000078 ], [ 8.242601395000065, 50.028209686000196 ], [ 8.243452072000025, 50.027957916000162 ], [ 8.244557381000106, 50.027629853000064 ], [ 8.246359826000116, 50.02645874100017 ], [ 8.248293876000048, 50.025165558000026 ], [ 8.250525474000142, 50.023784638000166 ], [ 8.252894402000038, 50.022438050000119 ], [ 8.255697251000072, 50.02077484199998 ], [ 8.259175301000084, 50.018718720000038 ], [ 8.262166977000163, 50.016902923000032 ], [ 8.265034676000028, 50.015052796000134 ], [ 8.26687526700016, 50.013935089000142 ], [ 8.269515038000179, 50.012287139000193 ], [ 8.272350311000025, 50.010295868000185 ], [ 8.277557373000093, 50.005355835000103 ], [ 8.283663749000141, 49.998985291000054 ], [ 8.285588264000125, 49.997016906000169 ], [ 8.288245201000109, 49.995132446000184 ] ] ] ] } }
]
}
